[{"OBJECT_NAME":"IRIDIUM 181","OBJECT_ID":"2023-068S","EPOCH":"2026-03-09T14:51:01.796256","MEAN_MOTION":14.43307145,"ECCENTRICITY":0.0002603,"INCLINATION":86.4454,"RA_OF_ASC_NODE":98.4288,"ARG_OF_PERICENTER":96.8881,"MEAN_ANOMALY":263.2616,"EPHEMERIS_TYPE":0,"CLASSIFICATION_TYPE":"U","NORAD_CAT_ID":56726,"ELEMENT_SET_NO":999,"REV_AT_EPOCH":14807,"BSTAR":1.6704e-5,"MEAN_MOTION_DOT":7.6e-7,"MEAN_MOTION_DDOT":0},{"OBJECT_NAME":"NOAA 16 DEB","OBJECT_ID":"2000-055SF","EPOCH":"2026-03-08T07:11:26.861280","MEAN_MOTION":14.42842256,"ECCENTRICITY":0.00151557,"INCLINATION":98.8294,"RA_OF_ASC_NODE":194.2333,"ARG_OF_PERICENTER":177.719,"MEAN_ANOMALY":182.407,"EPHEMERIS_TYPE":0,"CLASSIFICATION_TYPE":"U","NORAD_CAT_ID":42387,"ELEMENT_SET_NO":999,"REV_AT_EPOCH":52110,"BSTAR":0.0042014781,"MEAN_MOTION_DOT":0.00014023,"MEAN_MOTION_DDOT":0}]
